IRIDIUM 119             
1 42959U 17061E   25052.90998523  .00000043  00000+0  81608-5 0  9997
2 42959  86.3956 225.8971 0002324  96.0543 264.0918 14.34217603385973
IRIDIUM 107             
1 42960U 17061F   25052.92901188  .00000438  00000+0  14917-3 0  9997
2 42960  86.3957 225.9075 0002541  90.8596 269.2891 14.34218404385981
IRIDIUM 132             
1 42961U 17061G   25052.86558351  .00000500  00000+0  17149-3 0  9991
2 42961  86.3955 225.9171 0002141  89.4083 270.7358 14.34216856385971
IRIDIUM 136             
1 42962U 17061H   25052.89729986  .00000230  00000+0  75100-4 0  9991
2 42962  86.3957 225.9082 0002507  94.9373 265.2109 14.34215252385998
IRIDIUM 139             
1 42963U 17061J   25052.90364258 -.00000057  00000+0 -27481-4 0  9999
2 42963  86.3960 225.9599 0002288  89.4322 270.7136 14.34217622386002
IRIDIUM 125             
1 42964U 17061K   25052.89095781  .00000034  00000+0  49907-5 0  9991
2 42964  86.3960 226.0172 0002593 102.1523 257.9963 14.34217759386014
IRIDIUM 135             
1 43070U 17083A   25052.79530991  .00000519  00000+0  17825-3 0  9990
2 43070  86.4038 162.8204 0001856  97.7086 262.4320 14.34221282375299
IRIDIUM 138             
1 43071U 17083B   25052.82067909  .00000206  00000+0  66465-4 0  9997
2 43071  86.4029 162.4960 0002332 113.4329 246.7113 14.34214601375282
